[{"OBJECT_NAME":"STARLINK-3558","OBJECT_ID":"2022-029AH","EPOCH":"2026-03-09T06:06:46.734912","MEAN_MOTION":15.08824172,"ECCENTRICITY":0.00013971,"INCLINATION":53.2184,"RA_OF_ASC_NODE":81.0812,"ARG_OF_PERICENTER":61.7414,"MEAN_ANOMALY":298.3719,"EPHEMERIS_TYPE":0,"CLASSIFICATION_TYPE":"U","NORAD_CAT_ID":52119,"ELEMENT_SET_NO":999,"REV_AT_EPOCH":22072,"BSTAR":-7.4606671e-5,"MEAN_MOTION_DOT":-1.475e-5,"MEAN_MOTION_DDOT":0},{"OBJECT_NAME":"FALCON 9 DEB","OBJECT_ID":"2021-041BG","EPOCH":"2026-03-09T15:47:07.516032","MEAN_MOTION":15.0585876,"ECCENTRICITY":0.00124165,"INCLINATION":53.0346,"RA_OF_ASC_NODE":200.9185,"ARG_OF_PERICENTER":159.6872,"MEAN_ANOMALY":200.4613,"EPHEMERIS_TYPE":0,"CLASSIFICATION_TYPE":"U","NORAD_CAT_ID":48607,"ELEMENT_SET_NO":999,"REV_AT_EPOCH":26415,"BSTAR":0.00013916149,"MEAN_MOTION_DOT":1.762e-5,"MEAN_MOTION_DDOT":0}]
